GLOBALSTAR M075         
1 37192U 10054E   25135.45601382 -.00000082  00000+0  12199-3 0  9992
2 37192  51.9951 281.1956 0000701 110.3356 289.5357 12.62264727671713
GLOBALSTAR M073         
1 37193U 10054F   25135.38609561 -.00000076  00000+0  15774-3 0  9997
2 37193  52.0045 195.2042 0000254 174.9239 266.1557 12.62271496673693
GLOBALSTAR M083         
1 37739U 11033A   25135.41405653 -.00000112  00000+0 -43188-4 0  9994
2 37739  51.9837 143.8934 0000221 120.8724  27.5092 12.62263639642710
GLOBALSTAR M088         
1 37740U 11033B   25135.23197177 -.00000097  00000+0  36227-4 0  9992
2 37740  51.9749  49.9635 0000669  71.9198  89.8898 12.62265979638231
GLOBALSTAR M091         
1 37741U 11033C   25135.16729322 -.00000083  00000+0  11617-3 0  9998
2 37741  52.0022  13.6598 0000933  95.7644  71.1693 12.62267854639016
GLOBALSTAR M085         
1 37742U 11033D   25135.51947003 -.00000099  00000+0  26551-4 0  9997
2 37742  51.9880 323.6553 0000960 109.8088 278.5699 12.62268363639577
GLOBALSTAR M081         
1 37743U 11033E   25135.55072324 -.00000097  00000+0  39739-4 0  9997
2 37743  51.9971 326.3281 0000764 112.3291 297.3727 12.62263741639727
GLOBALSTAR M089         
1 37744U 11033F   25135.60126167 -.00000092  00000+0  66625-4 0  9998
2 37744  51.9932 280.4059 0000503 103.9367 356.7615 12.62269811640574
